[{"OBJECT_NAME":"STARLINK-32176","OBJECT_ID":"2024-136M","EPOCH":"2026-03-09T06:59:42.131040","MEAN_MOTION":15.30192295,"ECCENTRICITY":0.00012983,"INCLINATION":53.1602,"RA_OF_ASC_NODE":77.509,"ARG_OF_PERICENTER":84.4689,"MEAN_ANOMALY":275.646,"EPHEMERIS_TYPE":0,"CLASSIFICATION_TYPE":"U","NORAD_CAT_ID":60340,"ELEMENT_SET_NO":999,"REV_AT_EPOCH":9077,"BSTAR":5.866709e-6,"MEAN_MOTION_DOT":-1.85e-6,"MEAN_MOTION_DDOT":0},{"OBJECT_NAME":"SCS-01 D","OBJECT_ID":"2025-100D","EPOCH":"2026-03-09T18:08:45.040704","MEAN_MOTION":15.31902149,"ECCENTRICITY":0.00063457,"INCLINATION":97.373,"RA_OF_ASC_NODE":145.4097,"ARG_OF_PERICENTER":266.2302,"MEAN_ANOMALY":93.8214,"EPHEMERIS_TYPE":0,"CLASSIFICATION_TYPE":"U","NORAD_CAT_ID":63985,"ELEMENT_SET_NO":999,"REV_AT_EPOCH":4562,"BSTAR":0.0010528181,"MEAN_MOTION_DOT":0.00032471,"MEAN_MOTION_DDOT":0}]
